[{"OBJECT_NAME":"RROCI-2","OBJECT_ID":"2024-043J","EPOCH":"2026-03-09T21:40:56.693280","MEAN_MOTION":14.99383357,"ECCENTRICITY":0.00054118,"INCLINATION":97.8279,"RA_OF_ASC_NODE":200.9973,"ARG_OF_PERICENTER":337.3784,"MEAN_ANOMALY":22.7199,"EPHEMERIS_TYPE":0,"CLASSIFICATION_TYPE":"U","NORAD_CAT_ID":59106,"ELEMENT_SET_NO":999,"REV_AT_EPOCH":10988,"BSTAR":0.00035067832,"MEAN_MOTION_DOT":4.232e-5,"MEAN_MOTION_DDOT":0},{"OBJECT_NAME":"SAUDISAT 1A (SO-41)","OBJECT_ID":"2000-057A","EPOCH":"2026-03-09T22:39:31.129056","MEAN_MOTION":14.92876682,"ECCENTRICITY":0.00361512,"INCLINATION":64.5511,"RA_OF_ASC_NODE":249.3562,"ARG_OF_PERICENTER":314.8741,"MEAN_ANOMALY":44.9435,"EPHEMERIS_TYPE":0,"CLASSIFICATION_TYPE":"U","NORAD_CAT_ID":26545,"ELEMENT_SET_NO":999,"REV_AT_EPOCH":37821,"BSTAR":0.0002077791,"MEAN_MOTION_DOT":2.024e-5,"MEAN_MOTION_DDOT":0}]
